[{"OBJECT_NAME":"STARLINK-3529","OBJECT_ID":"2022-016L","EPOCH":"2026-03-09T23:18:46.314432","MEAN_MOTION":15.08837185,"ECCENTRICITY":0.00010438,"INCLINATION":53.2186,"RA_OF_ASC_NODE":327.8582,"ARG_OF_PERICENTER":82.4452,"MEAN_ANOMALY":277.6659,"EPHEMERIS_TYPE":0,"CLASSIFICATION_TYPE":"U","NORAD_CAT_ID":51724,"ELEMENT_SET_NO":999,"REV_AT_EPOCH":22346,"BSTAR":7.1330189e-5,"MEAN_MOTION_DOT":8.48e-6,"MEAN_MOTION_DDOT":0},{"OBJECT_NAME":"THOR ABLESTAR DEB","OBJECT_ID":"1961-015EX","EPOCH":"2026-03-09T22:58:31.837152","MEAN_MOTION":15.04262729,"ECCENTRICITY":0.00191468,"INCLINATION":67.4961,"RA_OF_ASC_NODE":12.7011,"ARG_OF_PERICENTER":32.2919,"MEAN_ANOMALY":327.9391,"EPHEMERIS_TYPE":0,"CLASSIFICATION_TYPE":"U","NORAD_CAT_ID":461,"ELEMENT_SET_NO":999,"REV_AT_EPOCH":37086,"BSTAR":0.0020469071,"MEAN_MOTION_DOT":0.00028661,"MEAN_MOTION_DDOT":0}]
